[{"OBJECT_NAME":"TIANQI-28","OBJECT_ID":"2024-102D","EPOCH":"2026-03-09T22:51:16.709472","MEAN_MOTION":13.99129757,"ECCENTRICITY":0.00101507,"INCLINATION":44.9805,"RA_OF_ASC_NODE":343.2234,"ARG_OF_PERICENTER":142.3431,"MEAN_ANOMALY":217.8114,"EPHEMERIS_TYPE":0,"CLASSIFICATION_TYPE":"U","NORAD_CAT_ID":59912,"ELEMENT_SET_NO":999,"REV_AT_EPOCH":9100,"BSTAR":0.00025291136,"MEAN_MOTION_DOT":2.4e-6,"MEAN_MOTION_DDOT":0},{"OBJECT_NAME":"THORAD AGENA D DEB","OBJECT_ID":"1969-082BY","EPOCH":"2026-03-09T23:21:54.178272","MEAN_MOTION":14.05044159,"ECCENTRICITY":0.00373186,"INCLINATION":70.0312,"RA_OF_ASC_NODE":64.9704,"ARG_OF_PERICENTER":90.1664,"MEAN_ANOMALY":270.3723,"EPHEMERIS_TYPE":0,"CLASSIFICATION_TYPE":"U","NORAD_CAT_ID":4209,"ELEMENT_SET_NO":999,"REV_AT_EPOCH":89002,"BSTAR":2.618957e-5,"MEAN_MOTION_DOT":-1.1e-7,"MEAN_MOTION_DDOT":0}]
